H1 CPF 01  gfz 2022 06 26 12  6772 terrasarx 
H2 0702601  6201 31698    2022 06 26 12 59 42 2022 07 01 00 00 42   120 1 1  0 0 0
H9
10 0 59757  59742.000000  0     560803.863   1171766.062  -6771532.784
10 0 59757  59862.000000  0    1412133.734   1463140.949  -6588290.724
10 0 59757  59982.000000  0    2243748.953   1714442.365  -6290096.957
10 0 59757  60102.000000  0    3040482.979   1921776.582  -5882088.862
10 0 59757  60222.000000  0    3787688.063   2082261.720  -5371308.466
10 0 59757  60342.000000  0    4471503.153   2194067.453  -4766592.520
10 0 59757  60462.000000  0    5079114.836   2256434.082  -4078431.108
10 0 59757  60582.000000  0    5599003.646   2269669.337  -3318794.971
10 0 59757  60702.000000  0    6021170.790   2235123.100  -2500935.517
10 0 59757  60822.000000  0    6337342.120   2155140.545  -1639158.264
10 0 59757  60942.000000  0    6541140.740   2032993.831   -748572.111
10 0 59757  61062.000000  0    6628225.203   1872793.458    155178.908
10 0 59757  61182.000000  0    6596386.826   1679380.979   1056197.912
10 0 59757  61302.000000  0    6445605.278   1458207.049   1938620.945
10 0 59757  61422.000000  0    6178062.284   1215196.544   2786906.162
10 0 59757  61542.000000  0    5798108.212    956604.064   3586115.986
10 0 59757  61662.000000  0    5312185.676    688864.670   4322186.999
10 0 59757  61782.000000  0    4728710.993    418443.018   4982179.982
10 0 59757  61902.000000  0    4057919.797    151685.681   5554508.187
10 0 59757  62022.000000  0    3311676.688   -105321.906   6029139.051
10 0 59757  62142.000000  0    2503256.312   -346887.931   6397763.902
10 0 59757  62262.000000  0    1647102.103   -567835.063   6653937.490
10 0 59757  62382.000000  0     758564.567   -763607.940   6793185.986
10 0 59757  62502.000000  0    -146376.885   -930364.964   6813080.027
10 0 59757  62622.000000  0   -1051401.196  -1065052.565   6713273.269
10 0 59757  62742.000000  0   -1940138.851  -1165461.200   6495507.275
10 0 59757  62862.000000  0   -2796466.069  -1230261.231   6163582.320
10 0 59757  62982.000000  0   -3604796.378  -1259018.774   5723296.930
10 0 59757  63102.000000  0   -4350368.115  -1252192.430   5182353.994
10 0 59757  63222.000000  0   -5019520.083  -1211110.542   4550231.882
10 0 59757  63342.000000  0   -5599949.691  -1137928.101   3838022.616
10 0 59757  63462.000000  0   -6080947.257  -1035564.533   3058239.631
10 0 59757  63582.000000  0   -6453602.513   -907623.816   2224599.838
10 0 59757  63702.000000  0   -6710981.054   -758298.747   1351781.108
10 0 59757  63822.000000  0   -6848261.934   -592261.344    455157.219
10 0 59757  63942.000000  0   -6862832.290   -414542.172   -449480.993
10 0 59757  64062.000000  0   -6754338.105   -230401.501  -1346212.795
10 0 59757  64182.000000  0   -6524688.227    -45195.677  -2219276.393
10 0 59757  64302.000000  0   -6178014.889    135756.959  -3053351.943
10 0 59757  64422.000000  0   -5720590.144    307308.612  -3833836.771
10 0 59757  64542.000000  0   -5160698.935    464609.136  -4547102.591
10 0 59757  64662.000000  0   -4508475.708    603224.012  -5180730.701
10 0 59757  64782.000000  0   -3775708.431    719241.391  -5723721.266
10 0 59757  64902.000000  0   -2975615.713    809364.831  -6166674.798
10 0 59757  65022.000000  0   -2122602.052    870990.384  -6501942.628
10 0 59757  65142.000000  0   -1231996.984    902267.793  -6723748.020
10 0 59757  65262.000000  0    -319780.728    902144.411  -6828274.845
10 0 59757  65382.000000  0     597696.315    870390.816  -6813724.760
10 0 59757  65502.000000  0    1503998.366    807608.094  -6680346.782
10 0 59757  65622.000000  0    2382893.260    715216.869  -6430434.786
10 0 59757  65742.000000  0    3218637.510    595428.244  -6068291.986
10 0 59757  65862.000000  0    3996254.631    451196.920  -5600163.733
10 0 59757  65982.000000  0    4701801.929    286156.274  -5034140.248
10 0 59757  66102.000000  0    5322624.001    104537.911  -4380028.865
10 0 59757  66222.000000  0    5847587.298    -88924.337  -3649194.265
10 0 59757  66342.000000  0    6267289.190   -289103.852  -2854369.673
10 0 59757  66462.000000  0    6574238.919   -490602.167  -2009441.583
10 0 59757  66582.000000  0    6763004.574   -687878.623  -1129208.635
10 0 59757  66702.000000  0    6830320.664   -875385.188   -229120.391
10 0 59757  66822.000000  0    6775154.136  -1047703.778    674998.569
10 0 59757  66942.000000  0    6598725.942  -1199682.521   1567234.653
10 0 59757  67062.000000  0    6304487.713  -1326567.607   2431874.005
10 0 59757  67182.000000  0    5898052.002  -1424126.235   3253689.231
10 0 59757  67302.000000  0    5387079.237  -1488757.983   4018214.135
10 0 59757  67422.000000  0    4781125.152  -1517592.924   4712003.004
10 0 59757  67542.000000  0    4091452.325  -1508572.118   5322868.397
10 0 59757  67662.000000  0    3330811.809  -1460509.360   5840094.316
10 0 59757  67782.000000  0    2513198.197  -1373133.983   6254620.627
10 0 59757  67902.000000  0    1653585.910  -1247113.465   6559195.760
10 0 59757  68022.000000  0     767650.558  -1084055.657   6748498.335
10 0 59757  68142.000000  0    -128519.820   -886489.491   6819224.305
10 0 59757  68262.000000  0   -1018716.893   -657825.598   6770139.642
10 0 59757  68382.000000  0   -1886903.648   -402297.585   6602100.048
10 0 59757  68502.000000  0   -2717501.731   -124884.075   6318037.007
10 0 59757  68622.000000  0   -3495670.603    168786.985   5922911.006
10 0 59757  68742.000000  0   -4207575.236    472550.152   5423631.007
10 0 59757  68862.000000  0   -4840637.187    779828.741   4828939.586
10 0 59757  68982.000000  0   -5383764.262   1083773.380   4149265.682
10 0 59757  69102.000000  0   -5827553.480   1377410.396   3396545.111
10 0 59757  69222.000000  0   -6164462.696   1653796.572   2584013.074
10 0 59757  69342.000000  0   -6388948.014   1906176.812   1725970.887
10 0 59757  69462.000000  0   -6497563.338   2128141.113    837530.659
10 0 59757  69582.000000  0   -6489017.843   2313777.205    -65658.345
10 0 59757  69702.000000  0   -6364189.201   2457813.554   -967694.134
10 0 59757  69822.000000  0   -6126093.072   2555749.792  -1852710.778
10 0 59757  69942.000000  0   -5779810.271   2603971.951  -2705165.819
10 0 59757  70062.000000  0   -5332371.599   2599848.802  -3510120.399
10 0 59757  70182.000000  0   -4792605.076   2541806.216  -4253503.807
10 0 59757  70302.000000  0   -4170951.097   2429379.103  -4922358.184
10 0 59757  70422.000000  0   -3479249.899   2263240.114  -5505058.639
10 0 59757  70542.000000  0   -2730508.582   2045205.353  -5991505.905
10 0 59757  70662.000000  0   -1938652.120   1778217.069  -6373291.685
10 0 59757  70782.000000  0   -1118261.229   1466303.260  -6643832.451
10 0 59757  70902.000000  0    -284305.998   1114515.934  -6798471.119
10 0 59757  71022.000000  0     548121.998    728849.448  -6834547.927
10 0 59757  71142.000000  0    1364075.390    316140.586  -6751442.703
10 0 59757  71262.000000  0    2149014.627   -116050.295  -6550585.004
10 0 59757  71382.000000  0    2889060.912   -559574.049  -6235431.496
10 0 59757  71502.000000  0    3571238.412  -1005841.977  -5811413.042
10 0 59757  71622.000000  0    4183699.840  -1445987.034  -5285849.820
10 0 59757  71742.000000  0    4715935.044  -1871036.223  -4667837.341
10 0 59757  71862.000000  0    5158957.403  -2272091.060  -3968099.897
10 0 59757  71982.000000  0    5505463.895  -2640511.616  -3198814.403
10 0 59757  72102.000000  0    5749966.005  -2968100.761  -2373405.572
10 0 59757  72222.000000  0    5888886.696  -3247284.372  -1506314.666
10 0 59757  72342.000000  0    5920620.907  -3471282.935   -612747.010
10 0 59757  72462.000000  0    5845557.810  -3634270.784    291598.360
10 0 59757  72582.000000  0    5666062.989  -3731518.163   1190810.679
10 0 59757  72702.000000  0    5386421.194  -3759513.052   2069056.688
10 0 59757  72822.000000  0    5012737.924  -3716056.537   2910869.138
10 0 59757  72942.000000  0    4552805.573  -3600331.746   3701426.225
10 0 59757  73062.000000  0    4015937.973  -3412943.766   4426817.919
10 0 59757  73182.000000  0    3412776.687  -3155931.483   5074294.625
10 0 59757  73302.000000  0    2755072.328  -2832748.703   5632491.437
10 0 59757  73422.000000  0    2055449.827  -2448216.287   6091624.662
10 0 59757  73542.000000  0    1327160.805  -2008447.598   6443658.300
10 0 59757  73662.000000  0     583829.202  -1520748.600   6682438.603
10 0 59757  73782.000000  0    -160805.165   -993493.985   6803795.593
10 0 59757  73902.000000  0    -893140.344   -435981.865   6805610.803
10 0 59757  74022.000000  0   -1599959.452    141730.181   6687851.496
10 0 59757  74142.000000  0   -2268668.205    729006.080   6452571.330
10 0 59757  74262.000000  0   -2887518.993   1314826.181   6103877.040
10 0 59757  74382.000000  0   -3445818.304   1887993.009   5647861.596
10 0 59757  74502.000000  0   -3934114.960   2437345.131   5092504.569
10 0 59757  74622.000000  0   -4344365.388   2951976.204   4447538.701
10 0 59757  74742.000000  0   -4670072.554   3421453.482   3724283.885
10 0 59757  74862.000000  0   -4906394.924   3836031.528   2935451.079
10 0 59757  74982.000000  0   -5050222.873   4186857.437   2094919.622
10 0 59757  75102.000000  0   -5100221.762   4466162.700   1217490.696
10 0 59757  75222.000000  0   -5056838.089   4667435.475    318620.159
10 0 59757  75342.000000  0   -4922269.615   4785567.627   -585861.104
10 0 59757  75462.000000  0   -4700400.811   4816975.804  -1480035.115
10 0 59757  75582.000000  0   -4396702.099   4759691.568  -2348187.019
10 0 59757  75702.000000  0   -4018098.345   4613416.987  -3175088.842
10 0 59757  75822.000000  0   -3572809.200   4379545.604  -3946271.319
10 0 59757  75942.000000  0   -3070166.445   4061149.454  -4648276.725
10 0 59757  76062.000000  0   -2520414.436   3662933.487  -5268888.714
10 0 59757  76182.000000  0   -1934499.348   3191160.469  -5797337.295
99
